{
  "type": "FeatureCollection",
  "features": [
    {
      "type": "Feature",
      "properties": {
        "norad_id": 54259,
        "name": "EUTELSAT 10B",
        "group": "eutelsat",
        "lat": -0.053250368223931206,
        "lon": -17.186689111276383,
        "alt_km": 35793.76909891681,
        "timestamp": "2025-12-09T16:56:36.251883+00:00",
        "meta_object_name": "EUTELSAT 10B",
        "meta_object_id": "2022-157A",
        "meta_epoch": "2025-12-09T06:50:38.879808",
        "meta_mean_motion": 1.00265933,
        "meta_eccentricity": 0.0001494,
        "meta_inclination": 0.0614,
        "meta_ra_of_asc_node": 98.4433,
        "meta_arg_of_pericenter": 78.8034,
        "meta_mean_anomaly": 13.6704,
        "meta_ephemeris_type": 0,
        "meta_classification_type": "U",
        "meta_norad_cat_id": 54259,
        "meta_element_set_no": 999,
        "meta_rev_at_epoch": 1112,
        "meta_bstar": 0,
        "meta_mean_motion_dot": 7e-07,
        "meta_mean_motion_ddot": 0,
        "tle_line1": "1 54259U 22157A   25343.28517222  .00000070  00000+0  00000+0 0  9993",
        "tle_line2": "2 54259   0.0614  98.4433 0001494  78.8034  13.6704  1.00265933 11122"
      },
      "geometry": {
        "type": "Point",
        "coordinates": [
          -17.186689111276383,
          -0.053250368223931206
        ]
      }
    },
    {
      "type": "Feature",
      "properties": {
        "norad_id": 59346,
        "name": "EUTELSAT 36D",
        "group": "eutelsat",
        "lat": 0.01511578904287232,
        "lon": 8.697035350273387,
        "alt_km": 35785.60436768313,
        "timestamp": "2025-12-09T16:56:36.251895+00:00",
        "meta_object_name": "EUTELSAT 36D",
        "meta_object_id": "2024-059A",
        "meta_epoch": "2025-12-09T10:18:56.403072",
        "meta_mean_motion": 1.0026861,
        "meta_eccentricity": 4.49e-05,
        "meta_inclination": 0.0177,
        "meta_ra_of_asc_node": 347.0483,
        "meta_arg_of_pericenter": 336.6605,
        "meta_mean_anomaly": 305.3028,
        "meta_ephemeris_type": 0,
        "meta_classification_type": "U",
        "meta_norad_cat_id": 59346,
        "meta_element_set_no": 999,
        "meta_rev_at_epoch": 624,
        "meta_bstar": 0,
        "meta_mean_motion_dot": 0,
        "meta_mean_motion_ddot": 0,
        "tle_line1": "1 59346U 24059A   25343.42981948  .00000000  00000+0  00000+0 0  9997",
        "tle_line2": "2 59346   0.0177 347.0483 0000449 336.6605 305.3028  1.00268610  6246"
      },
      "geometry": {
        "type": "Point",
        "coordinates": [
          8.697035350273387,
          0.01511578904287232
        ]
      }
    }
  ]
}